STARLINK-1559           
1 46077U 20055BC  26068.23360559  .00042685  00000+0  14779-2 0  9995
2 46077  53.0254  76.0659 0004229  33.9710 326.1559 15.29461733309518
STARLINK-31427          
1 59241U 24049L   26068.24177380 -.00002200  00000+0 -70464-4 0  9994
2 59241  42.9998 146.3751 0000829 255.3591 104.7169 15.27574120112332
